{"type": "FeatureCollection", "features": [ {"type": "Feature", "properties": {"norad_id": 36226, "name": "FENGYUN 1C DEB", "group": "fengyun-1c-debris", "lat": -2.047162642941774, "lon": -144.78877396833641, "alt_km": 930.3013748010217, "timestamp": "2025-12-19T06:59:44.196513+00:00", "meta": {"OBJECT_NAME": "FENGYUN 1C DEB", "OBJECT_ID": "1999-025DVB", "EPOCH": "2025-12-16T21:56:50.014464", "MEAN_MOTION": 14.10310742, "ECCENTRICITY": 0.0095148, "INCLINATION": 98.6088, "RA_OF_ASC_NODE": 33.2455, "ARG_OF_PERICENTER": 8.6109, "MEAN_ANOMALY": 351.6668, "EPHEMERIS_TYPE": 0, "CLASSIFICATION_TYPE": "U", "NORAD_CAT_ID": 36226, "ELEMENT_SET_NO": 999, "REV_AT_EPOCH": 63821, "BSTAR": 0.0011977074, "MEAN_MOTION_DOT": 2.175e-05, "MEAN_MOTION_DDOT": 0}, "tle": {"line1": "1 36226U 99025DVB 25350.91446776  .00002175  00000+0  11977-2 0  9994", "line2": "2 36226  98.6088  33.2455 0095148   8.6109 351.6668 14.10310742638211"}}, "geometry": {"type": "Point", "coordinates": [-144.78877396833641, -2.047162642941774]}}, {"type": "Feature", "properties": {"norad_id": 36229, "name": "FENGYUN 1C DEB", "group": "fengyun-1c-debris", "lat": -56.91511577568229, "lon": 17.16819559678996, "alt_km": 926.0926954568522, "timestamp": "2025-12-19T06:59:44.196523+00:00", "meta": {"OBJECT_NAME": "FENGYUN 1C DEB", "OBJECT_ID": "1999-025DVE", "EPOCH": "2025-12-13T08:14:45.074400", "MEAN_MOTION": 14.07195739, "ECCENTRICITY": 0.01025541, "INCLINATION": 100.9257, "RA_OF_ASC_NODE": 207.239, "ARG_OF_PERICENTER": 120.9915, "MEAN_ANOMALY": 240.137, "EPHEMERIS_TYPE": 0, "CLASSIFICATION_TYPE": "U", "NORAD_CAT_ID": 36229, "ELEMENT_SET_NO": 999, "REV_AT_EPOCH": 63264, "BSTAR": 0.0024305202, "MEAN_MOTION_DOT": 4.215e-05, "MEAN_MOTION_DDOT": 0}, "tle": {"line1": "1 36229U 99025DVE 25347.34357725  .00004215  00000+0  24305-2 0  9991", "line2": "2 36229 100.9257 207.2390 0102554 120.9915 240.1370 14.07195739632649"}}, "geometry": {"type": "Point", "coordinates": [17.16819559678996, -56.91511577568229]}}, {"type": "Feature", "properties": {"norad_id": 36230, "name": "FENGYUN 1C DEB", "group": "fengyun-1c-debris", "lat": 63.95502236154078, "lon": 48.30538731639695, "alt_km": 890.3794132930125, "timestamp": "2025-12-19T06:59:44.196533+00:00", "meta": {"OBJECT_NAME": "FENGYUN 1C DEB", "OBJECT_ID": "1999-025DVF", "EPOCH": "2025-12-13T10:59:42.315360", "MEAN_MOTION": 13.7527667, "ECCENTRICITY": 0.02170894, "INCLINATION": 99.5244, "RA_OF_ASC_NODE": 62.57, "ARG_OF_PERICENTER": 140.2916, "MEAN_ANOMALY": 221.4354, "EPHEMERIS_TYPE": 0, "CLASSIFICATION_TYPE": "U", "NORAD_CAT_ID": 36230, "ELEMENT_SET_NO": 999, "REV_AT_EPOCH": 61896, "BSTAR": 0.0027661722, "MEAN_MOTION_DOT": 3.107e-05, "MEAN_MOTION_DDOT": 0}, "tle": {"line1": "1 36230U 99025DVF 25347.45812865  .00003107  00000+0  27662-2 0  9994", "line2": "2 36230  99.5244  62.5700 0217089 140.2916 221.4354 13.75276670618964"}}, "geometry": {"type": "Point", "coordinates": [48.30538731639695, 63.95502236154078]}}, {"type": "Feature", "properties": {"norad_id": 36231, "name": "FENGYUN 1C DEB", "group": "fengyun-1c-debris", "lat": 66.84404392818556, "lon": 168.96999547231326, "alt_km": 885.9813146591241, "timestamp": "2025-12-19T06:59:44.196543+00:00", "meta": {"OBJECT_NAME": "FENGYUN 1C DEB", "OBJECT_ID": "1999-025DVG", "EPOCH": "2025-12-17T05:08:58.635456", "MEAN_MOTION": 14.12010101, "ECCENTRICITY": 0.00603253, "INCLINATION": 98.6888, "RA_OF_ASC_NODE": 326.0082, "ARG_OF_PERICENTER": 320.7082, "MEAN_ANOMALY": 38.9721, "EPHEMERIS_TYPE": 0, "CLASSIFICATION_TYPE": "U", "NORAD_CAT_ID": 36231, "ELEMENT_SET_NO": 999, "REV_AT_EPOCH": 85606, "BSTAR": 0.00014297125, "MEAN_MOTION_DOT": 2.23e-06, "MEAN_MOTION_DDOT": 0}, "tle": {"line1": "1 36231U 99025DVG 25351.21456754  .00000223  00000+0  14297-3 0  9992", "line2": "2 36231  98.6888 326.0082 0060325 320.7082  38.9721 14.12010101856069"}}, "geometry": {"type": "Point", "coordinates": [168.96999547231326, 66.84404392818556]}}, {"type": "Feature", "properties": {"norad_id": 36232, "name": "FENGYUN 1C DEB", "group": "fengyun-1c-debris", "lat": 11.274820663237357, "lon": -24.59921239858691, "alt_km": 766.0727403549618, "timestamp": "2025-12-19T06:59:44.196553+00:00", "meta": {"OBJECT_NAME": "FENGYUN 1C DEB", "OBJECT_ID": "1999-025DVH", "EPOCH": "2025-12-13T16:38:24.949248", "MEAN_MOTION": 14.12503312, "ECCENTRICITY": 0.01190746, "INCLINATION": 98.7046, "RA_OF_ASC_NODE": 331.7114, "ARG_OF_PERICENTER": 25.4348, "MEAN_ANOMALY": 335.262, "EPHEMERIS_TYPE": 0, "CLASSIFICATION_TYPE": "U", "NORAD_CAT_ID": 36232, "ELEMENT_SET_NO": 999, "REV_AT_EPOCH": 61749, "BSTAR": 0.00047398926, "MEAN_MOTION_DOT": 8.94e-06, "MEAN_MOTION_DDOT": 0}, "tle": {"line1": "1 36232U 99025DVH 25347.69334432  .00000894  00000+0  47399-3 0  9991", "line2": "2 36232  98.7046 331.7114 0119074  25.4348 335.2620 14.12503312617490"}}, "geometry": {"type": "Point", "coordinates": [-24.59921239858691, 11.274820663237357]}}, {"type": "Feature", "properties": {"norad_id": 36234, "name": "FENGYUN 1C DEB", "group": "fengyun-1c-debris", "lat": -10.55298843074063, "lon": 64.13316560396504, "alt_km": 871.9670776424036, "timestamp": "2025-12-19T06:59:44.196563+00:00", "meta": {"OBJECT_NAME": "FENGYUN 1C DEB", "OBJECT_ID": "1999-025DVK", "EPOCH": "2025-12-08T10:31:28.850304", "MEAN_MOTION": 13.45655828, "ECCENTRICITY": 0.03174488, "INCLINATION": 99.0031, "RA_OF_ASC_NODE": 52.6849, "ARG_OF_PERICENTER": 39.1104, "MEAN_ANOMALY": 323.2521, "EPHEMERIS_TYPE": 0, "CLASSIFICATION_TYPE": "U", "NORAD_CAT_ID": 36234, "ELEMENT_SET_NO": 999, "REV_AT_EPOCH": 87889, "BSTAR": 0.00050484626, "MEAN_MOTION_DOT": 3.7e-06, "MEAN_MOTION_DDOT": 0}, "tle": {"line1": "1 36234U 99025DVK 25342.43852836  .00000370  00000+0  50485-3 0  9992", "line2": "2 36234  99.0031  52.6849 0317448  39.1104 323.2521 13.45655828878896"}}, "geometry": {"type": "Point", "coordinates": [64.13316560396504, -10.55298843074063]}}, {"type": "Feature", "properties": {"norad_id": 36236, "name": "FENGYUN 1C DEB", "group": "fengyun-1c-debris", "lat": -68.0387995875167, "lon": -169.43963397230303, "alt_km": 964.0149541723777, "timestamp": "2025-12-19T06:59:44.196573+00:00", "meta": {"OBJECT_NAME": "FENGYUN 1C DEB", "OBJECT_ID": "1999-025DVM", "EPOCH": "2025-12-10T20:13:13.163808", "MEAN_MOTION": 13.81954009, "ECCENTRICITY": 0.0149575, "INCLINATION": 98.85, "RA_OF_ASC_NODE": 25.3566, "ARG_OF_PERICENTER": 3.3066, "MEAN_ANOMALY": 356.9043, "EPHEMERIS_TYPE": 0, "CLASSIFICATION_TYPE": "U", "NORAD_CAT_ID": 36236, "ELEMENT_SET_NO": 999, "REV_AT_EPOCH": 59721, "BSTAR": 0.00040381, "MEAN_MOTION_DOT": 4.31e-06, "MEAN_MOTION_DDOT": 0}, "tle": {"line1": "1 36236U 99025DVM 25344.84251347  .00000431  00000+0  40381-3 0  9993", "line2": "2 36236  98.8500  25.3566 0149575   3.3066 356.9043 13.81954009597212"}}, "geometry": {"type": "Point", "coordinates": [-169.43963397230303, -68.0387995875167]}}, {"type": "Feature", "properties": {"norad_id": 36238, "name": "FENGYUN 1C DEB", "group": "fengyun-1c-debris", "lat": 27.780381586313414, "lon": -39.06864153775323, "alt_km": 858.4297082613457, "timestamp": "2025-12-19T06:59:44.196583+00:00", "meta": {"OBJECT_NAME": "FENGYUN 1C DEB", "OBJECT_ID": "1999-025DVP", "EPOCH": "2025-12-17T20:51:31.332960", "MEAN_MOTION": 14.12392162, "ECCENTRICITY": 0.00200877, "INCLINATION": 98.6473, "RA_OF_ASC_NODE": 324.1571, "ARG_OF_PERICENTER": 266.4872, "MEAN_ANOMALY": 93.4003, "EPHEMERIS_TYPE": 0, "CLASSIFICATION_TYPE": "U", "NORAD_CAT_ID": 36238, "ELEMENT_SET_NO": 999, "REV_AT_EPOCH": 87090, "BSTAR": 7.5905666e-05, "MEAN_MOTION_DOT": 9.8e-07, "MEAN_MOTION_DDOT": 0}, "tle": {"line1": "1 36238U 99025DVP 25351.86911265  .00000098  00000+0  75906-4 0  9998", "line2": "2 36238  98.6473 324.1571 0020087 266.4872  93.4003 14.12392162870900"}}, "geometry": {"type": "Point", "coordinates": [-39.06864153775323, 27.780381586313414]}}, {"type": "Feature", "properties": {"norad_id": 36244, "name": "FENGYUN 1C DEB", "group": "fengyun-1c-debris", "lat": -46.637525374497905, "lon": -85.55883962281746, "alt_km": 787.4213903047485, "timestamp": "2025-12-19T06:59:44.196593+00:00", "meta": {"OBJECT_NAME": "FENGYUN 1C DEB", "OBJECT_ID": "1999-025DVV", "EPOCH": "2025-12-14T06:16:57.462816", "MEAN_MOTION": 14.24987194, "ECCENTRICITY": 0.00489535, "INCLINATION": 98.9249, "RA_OF_ASC_NODE": 98.9064, "ARG_OF_PERICENTER": 280.0452, "MEAN_ANOMALY": 79.5205, "EPHEMERIS_TYPE": 0, "CLASSIFICATION_TYPE": "U", "NORAD_CAT_ID": 36244, "ELEMENT_SET_NO": 999, "REV_AT_EPOCH": 92000, "BSTAR": 0.0019822396, "MEAN_MOTION_DOT": 4.653e-05, "MEAN_MOTION_DDOT": 0}, "tle": {"line1": "1 36244U 99025DVV 25348.26177619  .00004653  00000+0  19822-2 0  9996", "line2": "2 36244  98.9249  98.9064 0048953 280.0452  79.5205 14.24987194920006"}}, "geometry": {"type": "Point", "coordinates": [-85.55883962281746, -46.637525374497905]}}, {"type": "Feature", "properties": {"norad_id": 36247, "name": "FENGYUN 1C DEB", "group": "fengyun-1c-debris", "lat": 18.771159018563498, "lon": 3.2455285684964155, "alt_km": 646.6082206650171, "timestamp": "2025-12-19T06:59:44.196603+00:00", "meta": {"OBJECT_NAME": "FENGYUN 1C DEB", "OBJECT_ID": "1999-025DVY", "EPOCH": "2025-12-18T20:51:37.325664", "MEAN_MOTION": 14.33602801, "ECCENTRICITY": 0.01868633, "INCLINATION": 98.2673, "RA_OF_ASC_NODE": 5.6742, "ARG_OF_PERICENTER": 15.5247, "MEAN_ANOMALY": 345.1564, "EPHEMERIS_TYPE": 0, "CLASSIFICATION_TYPE": "U", "NORAD_CAT_ID": 36247, "ELEMENT_SET_NO": 999, "REV_AT_EPOCH": 70350, "BSTAR": 0.00039211157, "MEAN_MOTION_DOT": 1.274e-05, "MEAN_MOTION_DDOT": 0}, "tle": {"line1": "1 36247U 99025DVY 25352.86918201  .00001274  00000+0  39211-3 0  9991", "line2": "2 36247  98.2673   5.6742 0186863  15.5247 345.1564 14.33602801703500"}}, "geometry": {"type": "Point", "coordinates": [3.2455285684964155, 18.771159018563498]}}]}